CCSDS_OMM_VERS = 2.0
CREATION_DATE  = 
ORIGINATOR     = 

OBJECT_NAME    = XRISM
OBJECT_ID      = 2023-137A
CENTER_NAME    = EARTH
REF_FRAME      = TEME
TIME_SYSTEM    = UTC
MEAN_ELEMENT_THEORY = SGP/SGP4

EPOCH          = 2026-03-09T23:17:57.797376
MEAN_MOTION    = 15.11505971
ECCENTRICITY   = .000801
INCLINATION    = 31.0015
RA_OF_ASC_NODE = 281.8459
ARG_OF_PERICENTER = 41.4505
MEAN_ANOMALY   = 318.6740

EPHEMERIS_TYPE = 0
CLASSIFICATION_TYPE = U
NORAD_CAT_ID   = 57800
ELEMENT_SET_NO = 999
REV_AT_EPOCH   = 13783
BSTAR          = .36527E-3
MEAN_MOTION_DOT = .6442E-4
MEAN_MOTION_DDOT = 0

CCSDS_OMM_VERS = 2.0
CREATION_DATE  = 
ORIGINATOR     = 

OBJECT_NAME    = ACS3
OBJECT_ID      = 2024-077B
CENTER_NAME    = EARTH
REF_FRAME      = TEME
TIME_SYSTEM    = UTC
MEAN_ELEMENT_THEORY = SGP/SGP4

EPOCH          = 2026-03-09T20:35:31.743456
MEAN_MOTION    = 13.89619668
ECCENTRICITY   = .0059818
INCLINATION    = 97.2069
RA_OF_ASC_NODE = 9.9320
ARG_OF_PERICENTER = 76.3572
MEAN_ANOMALY   = 284.4244

EPHEMERIS_TYPE = 0
CLASSIFICATION_TYPE = U
NORAD_CAT_ID   = 59588
ELEMENT_SET_NO = 999
REV_AT_EPOCH   = 9422
BSTAR          = .19402E-1
MEAN_MOTION_DOT = .24147E-3
MEAN_MOTION_DDOT = 0

CCSDS_OMM_VERS = 2.0
CREATION_DATE  = 
ORIGINATOR     = 

OBJECT_NAME    = SZ-21 MODULE
OBJECT_ID      = 2025-246C
CENTER_NAME    = EARTH
REF_FRAME      = TEME
TIME_SYSTEM    = UTC
MEAN_ELEMENT_THEORY = SGP/SGP4

EPOCH          = 2026-03-08T17:40:24.022560
MEAN_MOTION    = 15.68463397
ECCENTRICITY   = .00013651
INCLINATION    = 41.4736
RA_OF_ASC_NODE = 209.2286
ARG_OF_PERICENTER = 296.9264
MEAN_ANOMALY   = 63.1439

EPHEMERIS_TYPE = 0
CLASSIFICATION_TYPE = U
NORAD_CAT_ID   = 66515
ELEMENT_SET_NO = 999
REV_AT_EPOCH   = 1792
BSTAR          = .4111263E-3
MEAN_MOTION_DOT = .47754E-3
MEAN_MOTION_DDOT = 0

